{
  "type": "FeatureCollection",
  "features": [
    {
      "type": "Feature",
      "properties": {
        "norad_id": 46449,
        "name": "FENGYUN 1C DEB",
        "group": "fengyun-1c-debris",
        "lat": -67.99585591520432,
        "lon": 169.31971948330298,
        "alt_km": 740.1314551652831,
        "timestamp": "2025-12-02T19:35:50.846614+00:00",
        "meta_object_name": "FENGYUN 1C DEB",
        "meta_object_id": "1999-025EZE",
        "meta_epoch": "2025-11-27T19:57:02.428704",
        "meta_mean_motion": 14.19021773,
        "meta_eccentricity": 0.02029501,
        "meta_inclination": 98.6463,
        "meta_ra_of_asc_node": 6.5721,
        "meta_arg_of_pericenter": 314.0231,
        "meta_mean_anomaly": 44.4375,
        "meta_ephemeris_type": 0,
        "meta_classification_type": "U",
        "meta_norad_cat_id": 46449,
        "meta_element_set_no": 999,
        "meta_rev_at_epoch": 57425,
        "meta_bstar": 0.00050383916,
        "meta_mean_motion_dot": 1.244e-05,
        "meta_mean_motion_ddot": 0,
        "tle_line1": "1 46449U 99025EZE 25331.83127811  .00001244  00000+0  50384-3 0  9990",
        "tle_line2": "2 46449  98.6463   6.5721 0202950 314.0231  44.4375 14.19021773574253"
      },
      "geometry": {
        "type": "Point",
        "coordinates": [
          169.31971948330298,
          -67.99585591520432
        ]
      }
    },
    {
      "type": "Feature",
      "properties": {
        "norad_id": 46450,
        "name": "FENGYUN 1C DEB",
        "group": "fengyun-1c-debris",
        "lat": -65.6501791752585,
        "lon": -3.732831440272601,
        "alt_km": 1010.9848766701325,
        "timestamp": "2025-12-02T19:35:50.846624+00:00",
        "meta_object_name": "FENGYUN 1C DEB",
        "meta_object_id": "1999-025EZF",
        "meta_epoch": "2025-12-01T01:22:23.335392",
        "meta_mean_motion": 14.03437958,
        "meta_eccentricity": 0.01820591,
        "meta_inclination": 98.0807,
        "meta_ra_of_asc_node": 192.9977,
        "meta_arg_of_pericenter": 94.2765,
        "meta_mean_anomaly": 267.9231,
        "meta_ephemeris_type": 0,
        "meta_classification_type": "U",
        "meta_norad_cat_id": 46450,
        "meta_element_set_no": 999,
        "meta_rev_at_epoch": 60955,
        "meta_bstar": 0.0021892778,
        "meta_mean_motion_dot": 3.934e-05,
        "meta_mean_motion_ddot": 0,
        "tle_line1": "1 46450U 99025EZF 25335.05721453  .00003934  00000+0  21893-2 0  9992",
        "tle_line2": "2 46450  98.0807 192.9977 0182059  94.2765 267.9231 14.03437958609554"
      },
      "geometry": {
        "type": "Point",
        "coordinates": [
          -3.732831440272601,
          -65.6501791752585
        ]
      }
    },
    {
      "type": "Feature",
      "properties": {
        "norad_id": 46451,
        "name": "FENGYUN 1C DEB",
        "group": "fengyun-1c-debris",
        "lat": -20.794396251452124,
        "lon": -0.08662691014698376,
        "alt_km": 897.980525900226,
        "timestamp": "2025-12-02T19:35:50.846635+00:00",
        "meta_object_name": "FENGYUN 1C DEB",
        "meta_object_id": "1999-025EZG",
        "meta_epoch": "2025-11-30T12:38:05.847648",
        "meta_mean_motion": 14.2014228,
        "meta_eccentricity": 0.01714523,
        "meta_inclination": 98.1553,
        "meta_ra_of_asc_node": 354.6789,
        "meta_arg_of_pericenter": 221.5557,
        "meta_mean_anomaly": 294.2821,
        "meta_ephemeris_type": 0,
        "meta_classification_type": "U",
        "meta_norad_cat_id": 46451,
        "meta_element_set_no": 999,
        "meta_rev_at_epoch": 56833,
        "meta_bstar": 0.0030839765,
        "meta_mean_motion_dot": 7.589e-05,
        "meta_mean_motion_ddot": 0,
        "tle_line1": "1 46451U 99025EZG 25334.52645657  .00007589  00000+0  30840-2 0  9997",
        "tle_line2": "2 46451  98.1553 354.6789 0171452 221.5557 294.2821 14.20142280568339"
      },
      "geometry": {
        "type": "Point",
        "coordinates": [
          -0.08662691014698376,
          -20.794396251452124
        ]
      }
    },
    {
      "type": "Feature",
      "properties": {
        "norad_id": 46468,
        "name": "FENGYUN 1C DEB",
        "group": "fengyun-1c-debris",
        "lat": 59.04470295151607,
        "lon": 49.36495368643531,
        "alt_km": 834.8610099820689,
        "timestamp": "2025-12-02T19:35:50.846645+00:00",
        "meta_object_name": "FENGYUN 1C DEB",
        "meta_object_id": "1999-025EZK",
        "meta_epoch": "2025-12-01T04:40:55.312032",
        "meta_mean_motion": 14.24559314,
        "meta_eccentricity": 0.0045013,
        "meta_inclination": 98.8851,
        "meta_ra_of_asc_node": 62.8429,
        "meta_arg_of_pericenter": 263.3595,
        "meta_mean_anomaly": 125.7924,
        "meta_ephemeris_type": 0,
        "meta_classification_type": "U",
        "meta_norad_cat_id": 46468,
        "meta_element_set_no": 999,
        "meta_rev_at_epoch": 73652,
        "meta_bstar": 0.0020801,
        "meta_mean_motion_dot": 4.835e-05,
        "meta_mean_motion_ddot": 0,
        "tle_line1": "1 46468U 99025EZK 25335.19508463  .00004835  00000+0  20801-2 0  9999",
        "tle_line2": "2 46468  98.8851  62.8429 0045013 263.3595 125.7924 14.24559314736527"
      },
      "geometry": {
        "type": "Point",
        "coordinates": [
          49.36495368643531,
          59.04470295151607
        ]
      }
    },
    {
      "type": "Feature",
      "properties": {
        "norad_id": 46986,
        "name": "FENGYUN 1C DEB",
        "group": "fengyun-1c-debris",
        "lat": 24.53789552173415,
        "lon": -175.38631353743082,
        "alt_km": 730.3399996649277,
        "timestamp": "2025-12-02T19:35:50.846655+00:00",
        "meta_object_name": "FENGYUN 1C DEB",
        "meta_object_id": "1999-025EZL",
        "meta_epoch": "2025-12-01T08:01:27.390720",
        "meta_mean_motion": 14.47112781,
        "meta_eccentricity": 0.01038428,
        "meta_inclination": 98.2357,
        "meta_ra_of_asc_node": 359.3803,
        "meta_arg_of_pericenter": 247.048,
        "meta_mean_anomaly": 111.973,
        "meta_ephemeris_type": 0,
        "meta_classification_type": "U",
        "meta_norad_cat_id": 46986,
        "meta_element_set_no": 999,
        "meta_rev_at_epoch": 63235,
        "meta_bstar": 0.00048896767,
        "meta_mean_motion_dot": 1.859e-05,
        "meta_mean_motion_ddot": 0,
        "tle_line1": "1 46986U 99025EZL 25335.33434480  .00001859  00000+0  48897-3 0  9996",
        "tle_line2": "2 46986  98.2357 359.3803 0103842 247.0480 111.9730 14.47112781632350"
      },
      "geometry": {
        "type": "Point",
        "coordinates": [
          -175.38631353743082,
          24.53789552173415
        ]
      }
    },
    {
      "type": "Feature",
      "properties": {
        "norad_id": 46989,
        "name": "FENGYUN 1C DEB",
        "group": "fengyun-1c-debris",
        "lat": 31.284715135402905,
        "lon": -35.60915533113257,
        "alt_km": 1105.447414059886,
        "timestamp": "2025-12-02T19:35:50.846666+00:00",
        "meta_object_name": "FENGYUN 1C DEB",
        "meta_object_id": "1999-025EZP",
        "meta_epoch": "2025-12-01T09:56:49.877952",
        "meta_mean_motion": 13.7915922,
        "meta_eccentricity": 0.02374727,
        "meta_inclination": 99.5096,
        "meta_ra_of_asc_node": 137.1371,
        "meta_arg_of_pericenter": 7.3744,
        "meta_mean_anomaly": 21.4435,
        "meta_ephemeris_type": 0,
        "meta_classification_type": "U",
        "meta_norad_cat_id": 46989,
        "meta_element_set_no": 999,
        "meta_rev_at_epoch": 70886,
        "meta_bstar": 0.0040160764,
        "meta_mean_motion_dot": 5.034e-05,
        "meta_mean_motion_ddot": 0,
        "tle_line1": "1 46989U 99025EZP 25335.41446618  .00005034  00000+0  40161-2 0  9998",
        "tle_line2": "2 46989  99.5096 137.1371 0237472   7.3744  21.4435 13.79159220708866"
      },
      "geometry": {
        "type": "Point",
        "coordinates": [
          -35.60915533113257,
          31.284715135402905
        ]
      }
    },
    {
      "type": "Feature",
      "properties": {
        "norad_id": 46990,
        "name": "FENGYUN 1C DEB",
        "group": "fengyun-1c-debris",
        "lat": 47.92415584995526,
        "lon": 10.76951636960632,
        "alt_km": 612.6214240186455,
        "timestamp": "2025-12-02T19:35:50.846679+00:00",
        "meta_object_name": "FENGYUN 1C DEB",
        "meta_object_id": "1999-025EZQ",
        "meta_epoch": "2025-11-26T08:35:57.996096",
        "meta_mean_motion": 14.23382053,
        "meta_eccentricity": 0.0358932,
        "meta_inclination": 98.231,
        "meta_ra_of_asc_node": 175.4855,
        "meta_arg_of_pericenter": 108.636,
        "meta_mean_anomaly": 64.2057,
        "meta_ephemeris_type": 0,
        "meta_classification_type": "U",
        "meta_norad_cat_id": 46990,
        "meta_element_set_no": 999,
        "meta_rev_at_epoch": 8296,
        "meta_bstar": 0.0024312042,
        "meta_mean_motion_dot": 0.0001074,
        "meta_mean_motion_ddot": 0,
        "tle_line1": "1 46990U 99025EZQ 25330.35831014  .00010740  00000+0  24312-2 0  9996",
        "tle_line2": "2 46990  98.2310 175.4855 0358932 108.6360  64.2057 14.23382053 82962"
      },
      "geometry": {
        "type": "Point",
        "coordinates": [
          10.76951636960632,
          47.92415584995526
        ]
      }
    }
  ]
}